start=new Date('2023-05-31T00:00:00.000Z').valueOf();
sats=[{"TIME_SYSTEM":"UTC","INCLINATION":"53.0535","OBJECT_TYPE":"PAYLOAD","MEAN_MOTION":"15.06424278","APOAPSIS":"547.782","ARG_OF_PERICENTER":"63.6864","REV_AT_EPOCH":"16619","EPHEMERIS_TYPE":"0","OBJECT_NAME":"STARLINK-1453","TLE_LINE1":"1 45670U 20035P   23150.59524468  .00020834  00000-0  14125-2 0  9998","EPOCH":"2023-05-30T14:17:09.140352","NORAD_CAT_ID":"45670","OBJECT_ID":"2020-035P","MEAN_MOTION_DDOT":"0.0000000000000","COUNTRY_CODE":"US","FILE":"3921192","MEAN_MOTION_DOT":"0.00020834","CENTER_NAME":"EARTH","ELEMENT_SET_NO":"999","REF_FRAME":"TEME","PERIAPSIS":"546.496","SEMIMAJOR_AXIS":"6925.274","MEAN_ANOMALY":"296.4221","DECAY_DATE":null,"PERIOD":"95.591","TLE_LINE2":"2 45670  53.0535 269.0639 0000928  63.6864 296.4221 15.06424278166190","RA_OF_ASC_NODE":"269.0639","GP_ID":"232850520","RCS_SIZE":"LARGE","LAUNCH_DATE":"2020-06-04","ECCENTRICITY":"0.00009280","MEAN_ELEMENT_THEORY":"SGP4","BSTAR":"0.00141250000000","CLASSIFICATION_TYPE":"U","SITE":"AFETR"},{"RCS_SIZE":"LARGE","LAUNCH_DATE":"2020-06-04","ECCENTRICITY":"0.00007940","MEAN_ELEMENT_THEORY":"SGP4","BSTAR":"0.00074158000000","CLASSIFICATION_TYPE":"U","SITE":"AFETR","ELEMENT_SET_NO":"999","PERIAPSIS":"546.604","REF_FRAME":"TEME","SEMIMAJOR_AXIS":"6925.289","MEAN_ANOMALY":"271.5170","DECAY_DATE":null,"PERIOD":"95.591","TLE_LINE2":"2 45671  53.0539 298.7128 0000794  88.5910 271.5170 15.06419593165882","RA_OF_ASC_NODE":"298.7128","GP_ID":"232851271","TLE_LINE1":"1 45671U 20035Q   23150.67357900  .00010787  00000-0  74158-3 0  9992","OBJECT_NAME":"STARLINK-1454","EPOCH":"2023-05-30T16:09:57.225600","NORAD_CAT_ID":"45671","OBJECT_ID":"2020-035Q","MEAN_MOTION_DDOT":"0.0000000000000","COUNTRY_CODE":"US","FILE":"3921192","MEAN_MOTION_DOT":"0.00010787","CENTER_NAME":"EARTH","TIME_SYSTEM":"UTC","INCLINATION":"53.0539","OBJECT_TYPE":"PAYLOAD","MEAN_MOTION":"15.06419593","APOAPSIS":"547.703","ARG_OF_PERICENTER":"88.5910","REV_AT_EPOCH":"16588","EPHEMERIS_TYPE":"0"},{"PERIOD":"95.591","DECAY_DATE":null,"GP_ID":"232849519","TLE_LINE2":"2 45672  53.0554 268.9607 0001076 139.2319 220.8751 15.06411488166307","RA_OF_ASC_NODE":"268.9607","ELEMENT_SET_NO":"999","SEMIMAJOR_AXIS":"6925.313","MEAN_ANOMALY":"220.8751","PERIAPSIS":"546.433","REF_FRAME":"TEME","MEAN_ELEMENT_THEORY":"SGP4","CLASSIFICATION_TYPE":"U","SITE":"AFETR","BSTAR":"0.00070345000000","RCS_SIZE":"LARGE","LAUNCH_DATE":"2020-06-04","ECCENTRICITY":"0.00010760","APOAPSIS":"547.924","EPHEMERIS_TYPE":"0","REV_AT_EPOCH":"16630","ARG_OF_PERICENTER":"139.2319","TIME_SYSTEM":"UTC","OBJECT_TYPE":"PAYLOAD","MEAN_MOTION":"15.06411488","INCLINATION":"53.0554","COUNTRY_CODE":"US","FILE":"3921192","OBJECT_ID":"2020-035R","MEAN_MOTION_DDOT":"0.0000000000000","CENTER_NAME":"EARTH","MEAN_MOTION_DOT":"0.00010215","EPOCH":"2023-05-30T14:49:00.008544","OBJECT_NAME":"STARLINK-1455","TLE_LINE1":"1 45672U 20035R   23150.61736121  .00010215  00000-0  70345-3 0  9993","NORAD_CAT_ID":"45672"},{"MEAN_ELEMENT_THEORY":"SGP4","BSTAR":"0.00131450000000","CLASSIFICATION_TYPE":"U","SITE":"AFETR","RCS_SIZE":"LARGE","LAUNCH_DATE":"2020-06-04","ECCENTRICITY":"0.00008710","DECAY_DATE":null,"PERIOD":"95.590","TLE_LINE2":"2 45673  53.0540 298.6464 0000871  94.2138 265.8950 15.06426217165490","RA_OF_ASC_NODE":"298.6464","GP_ID":"232829407","ELEMENT_SET_NO":"999","REF_FRAME":"TEME","PERIAPSIS":"546.530","SEMIMAJOR_AXIS":"6925.268","MEAN_ANOMALY":"265.8950","OBJECT_ID":"2020-035S","MEAN_MOTION_DDOT":"0.0000000000000","COUNTRY_CODE":"US","FILE":"3921124","MEAN_MOTION_DOT":"0.00019366","CENTER_NAME":"EARTH","TLE_LINE1":"1 45673U 20035S   23150.68831375  .00019366  00000-0  13145-2 0  9998","OBJECT_NAME":"STARLINK-1456","EPOCH":"2023-05-30T16:31:10.308000","NORAD_CAT_ID":"45673","APOAPSIS":"547.736","ARG_OF_PERICENTER":"94.2138","REV_AT_EPOCH":"16549","EPHEMERIS_TYPE":"0","TIME_SYSTEM":"UTC","INCLINATION":"53.0540","OBJECT_TYPE":"PAYLOAD","MEAN_MOTION":"15.06426217"},{"REV_AT_EPOCH":"16587","EPHEMERIS_TYPE":"0","ARG_OF_PERICENTER":"88.5040","APOAPSIS":"547.984","OBJECT_TYPE":"PAYLOAD","MEAN_MOTION":"15.06421264","INCLINATION":"53.0537","TIME_SYSTEM":"UTC","CENTER_NAME":"EARTH","MEAN_MOTION_DOT":"0.00012682","FILE":"3921192","COUNTRY_CODE":"US","MEAN_MOTION_DDOT":"0.0000000000000","OBJECT_ID":"2020-035T","NORAD_CAT_ID":"45674","EPOCH":"2023-05-30T16:41:47.528736","TLE_LINE1":"1 45674U 20035T   23150.69568899  .00012682  00000-0  86823-3 0  9996","OBJECT_NAME":"STARLINK-1457","GP_ID":"232851021","RA_OF_ASC_NODE":"298.6108","TLE_LINE2":"2 45674  53.0537 298.6108 0001207  88.5040 271.6087 15.06421264165879","DECAY_DATE":null,"PERIOD":"95.591","MEAN_ANOMALY":"271.6087","SEMIMAJOR_AXIS":"6925.283","REF_FRAME":"TEME","PERIAPSIS":"546.313","ELEMENT_SET_NO":"999","SITE":"AFETR","CLASSIFICATION_TYPE":"U","BSTAR":"0.00086823000000","MEAN_ELEMENT_THEORY":"SGP4","ECCENTRICITY":"0.00012070","LAUNCH_DATE":"2020-06-04","RCS_SIZE":"LARGE"},{"SEMIMAJOR_AXIS":"6925.285","MEAN_ANOMALY":"274.3331","PERIAPSIS":"546.571","REF_FRAME":"TEME","ELEMENT_SET_NO":"999","GP_ID":"232828910","TLE_LINE2":"2 45675  53.0555 298.6618 0000835  85.7754 274.3331 15.06420858165480","RA_OF_ASC_NODE":"298.6618","DECAY_DATE":null,"PERIOD":"95.591","ECCENTRICITY":"0.00008350","RCS_SIZE":"LARGE","LAUNCH_DATE":"2020-06-04","CLASSIFICATION_TYPE":"U","SITE":"AFETR","BSTAR":"0.00103510000000","MEAN_ELEMENT_THEORY":"SGP4","MEAN_MOTION":"15.06420858","OBJECT_TYPE":"PAYLOAD","INCLINATION":"53.0555","TIME_SYSTEM":"UTC","REV_AT_EPOCH":"16548","EPHEMERIS_TYPE":"0","ARG_OF_PERICENTER":"85.7754","APOAPSIS":"547.728","NORAD_CAT_ID":"45675","EPOCH":"2023-05-30T16:25:52.120992","TLE_LINE1":"1 45675U 20035U   23150.68463103  .00015179  00000-0  10351-2 0  9994","OBJECT_NAME":"STARLINK-1458","CENTER_NAME":"EARTH","MEAN_MOTION_DOT":"0.00015179","COUNTRY_CODE":"US","FILE":"3921124","OBJECT_ID":"2020-035U","MEAN_MOTION_DDOT":"0.0000000000000"},{"APOAPSIS":"547.859","ARG_OF_PERICENTER":"58.7552","REV_AT_EPOCH":"16586","EPHEMERIS_TYPE":"0","TIME_SYSTEM":"UTC","INCLINATION":"53.0534","MEAN_MOTION":"15.06422818","OBJECT_TYPE":"PAYLOAD","MEAN_MOTION_DDOT":"0.0000000000000","OBJECT_ID":"2020-035V","FILE":"3921192","COUNTRY_CODE":"US","MEAN_MOTION_DOT":"0.00013236","CENTER_NAME":"EARTH","TLE_LINE1":"1 45676U 20035V   23150.72148548  .00013236  00000-0  90524-3 0  9996","OBJECT_NAME":"STARLINK-1460","EPOCH":"2023-05-30T17:18:56.345472","NORAD_CAT_ID":"45676","DECAY_DATE":null,"PERIOD":"95.591","RA_OF_ASC_NODE":"298.4958","TLE_LINE2":"2 45676  53.0534 298.4958 0001033  58.7552 301.3538 15.06422818165860","GP_ID":"232850020","ELEMENT_SET_NO":"999","REF_FRAME":"TEME","PERIAPSIS":"546.428","MEAN_ANOMALY":"301.3538","SEMIMAJOR_AXIS":"6925.279","MEAN_ELEMENT_THEORY":"SGP4","BSTAR":"0.00090524000000","SITE":"AFETR","CLASSIFICATION_TYPE":"U","LAUNCH_DATE":"2020-06-04","RCS_SIZE":"LARGE","ECCENTRICITY":"0.00010330"},{"MEAN_ANOMALY":"288.3857","SEMIMAJOR_AXIS":"6925.307","PERIAPSIS":"546.666","REF_FRAME":"TEME","ELEMENT_SET_NO":"999","GP_ID":"232850270","RA_OF_ASC_NODE":"298.7449","TLE_LINE2":"2 45677  53.0529 298.7449 0000731  71.7212 288.3857 15.06413549165897","PERIOD":"95.591","DECAY_DATE":null,"ECCENTRICITY":"0.00007310","LAUNCH_DATE":"2020-06-04","RCS_SIZE":"LARGE","SITE":"AFETR","CLASSIFICATION_TYPE":"U","BSTAR":"0.00122260000000","MEAN_ELEMENT_THEORY":"SGP4","MEAN_MOTION":"15.06413549","OBJECT_TYPE":"PAYLOAD","INCLINATION":"53.0529","TIME_SYSTEM":"UTC","REV_AT_EPOCH":"16589","EPHEMERIS_TYPE":"0","ARG_OF_PERICENTER":"71.7212","APOAPSIS":"547.678","NORAD_CAT_ID":"45677","EPOCH":"2023-05-30T15:59:19.883904","OBJECT_NAME":"STARLINK-1392","TLE_LINE1":"1 45677U 20035W   23150.66620236  .00017983  00000-0  12226-2 0  9994","CENTER_NAME":"EARTH","MEAN_MOTION_DOT":"0.00017983","FILE":"3921192","COUNTRY_CODE":"US","MEAN_MOTION_DDOT":"0.0000000000000","OBJECT_ID":"2020-035W"},{"INCLINATION":"53.0538","MEAN_MOTION":"15.06423397","OBJECT_TYPE":"PAYLOAD","TIME_SYSTEM":"UTC","ARG_OF_PERICENTER":"68.3705","EPHEMERIS_TYPE":"0","REV_AT_EPOCH":"16601","APOAPSIS":"547.718","NORAD_CAT_ID":"45678","TLE_LINE1":"1 45678U 20035X   23150.65974779  .00015084  00000-0  10287-2 0  9993","OBJECT_NAME":"STARLINK-1393","EPOCH":"2023-05-30T15:50:02.209056","MEAN_MOTION_DOT":"0.00015084","CENTER_NAME":"EARTH","MEAN_MOTION_DDOT":"0.0000000000000","OBJECT_ID":"2020-035X","FILE":"3921192","COUNTRY_CODE":"US","PERIAPSIS":"546.566","REF_FRAME":"TEME","MEAN_ANOMALY":"291.7373","SEMIMAJOR_AXIS":"6925.277","ELEMENT_SET_NO":"999","RA_OF_ASC_NODE":"288.7741","TLE_LINE2":"2 45678  53.0538 288.7741 0000832  68.3705 291.7373 15.06423397166011","GP_ID":"232850521","PERIOD":"95.591","DECAY_DATE":null,"ECCENTRICITY":"0.00008320","LAUNCH_DATE":"2020-06-04","RCS_SIZE":"LARGE","BSTAR":"0.00102870000000","SITE":"AFETR","CLASSIFICATION_TYPE":"U","MEAN_ELEMENT_THEORY":"SGP4"},{"TIME_SYSTEM":"UTC","OBJECT_TYPE":"PAYLOAD","MEAN_MOTION":"15.06419197","INCLINATION":"53.0534","APOAPSIS":"547.843","REV_AT_EPOCH":"16602","EPHEMERIS_TYPE":"0","ARG_OF_PERICENTER":"78.3634","EPOCH":"2023-05-30T14:19:48.235584","OBJECT_NAME":"STARLINK-1394","TLE_LINE1":"1 45679U 20035Y   23150.59708606  .00009707  00000-0  66934-3 0  9997","NORAD_CAT_ID":"45679","FILE":"3921192","COUNTRY_CODE":"US","MEAN_MOTION_DDOT":"0.0000000000000","OBJECT_ID":"2020-035Y","CENTER_NAME":"EARTH","MEAN_MOTION_DOT":"0.00009707","ELEMENT_SET_NO":"999","MEAN_ANOMALY":"281.7466","SEMIMAJOR_AXIS":"6925.290","PERIAPSIS":"546.466","REF_FRAME":"TEME","DECAY_DATE":null,"PERIOD":"95.591","GP_ID":"232851272","RA_OF_ASC_NODE":"289.0590","TLE_LINE2":"2 45679  53.0534 289.0590 0000994  78.3634 281.7466 15.06419197166021","LAUNCH_DATE":"2020-06-04","RCS_SIZE":"LARGE","ECCENTRICITY":"0.00009940","MEAN_ELEMENT_THEORY":"SGP4","SITE":"AFETR","CLASSIFICATION_TYPE":"U","BSTAR":"0.00066934000000"}];
